{"type": "FeatureCollection", "features": [ {"type": "Feature", "properties": {"norad_id": 67153, "name": "KUIPER-00248", "group": "last-30-days", "lat": 10.97017373668935, "lon": 63.46054369792046, "alt_km": 464.97091116088905, "timestamp": "2025-12-27T08:36:17.081910+00:00", "meta": {"OBJECT_NAME": "KUIPER-00248", "OBJECT_ID": "2025-301W", "EPOCH": "2025-12-27T03:51:19.944000", "MEAN_MOTION": 15.34731865, "ECCENTRICITY": 0.0008866, "INCLINATION": 51.8682, "RA_OF_ASC_NODE": 55.6555, "ARG_OF_PERICENTER": 145.6711, "MEAN_ANOMALY": 214.4849, "EPHEMERIS_TYPE": 0, "CLASSIFICATION_TYPE": "U", "NORAD_CAT_ID": 67153, "ELEMENT_SET_NO": 999, "REV_AT_EPOCH": 275, "BSTAR": 0.0010948, "MEAN_MOTION_DOT": 0.00037263, "MEAN_MOTION_DDOT": 0}, "tle": {"line1": "1 67153U 25301W   25361.16064750  .00037263  00000+0  10948-2 0  9993", "line2": "2 67153  51.8682  55.6555 0008866 145.6711 214.4849 15.34731865  2757"}}, "geometry": {"type": "Point", "coordinates": [63.46054369792046, 10.97017373668935]}}, {"type": "Feature", "properties": {"norad_id": 67154, "name": "KUIPER-00249", "group": "last-30-days", "lat": 17.125702365141855, "lon": 68.69517096043437, "alt_km": 462.47617186009484, "timestamp": "2025-12-27T08:36:17.081923+00:00", "meta": {"OBJECT_NAME": "KUIPER-00249", "OBJECT_ID": "2025-301X", "EPOCH": "2025-12-27T03:49:16.492224", "MEAN_MOTION": 15.34855086, "ECCENTRICITY": 0.0008223, "INCLINATION": 51.8659, "RA_OF_ASC_NODE": 55.6469, "ARG_OF_PERICENTER": 142.281, "MEAN_ANOMALY": 217.8753, "EPHEMERIS_TYPE": 0, "CLASSIFICATION_TYPE": "U", "NORAD_CAT_ID": 67154, "ELEMENT_SET_NO": 999, "REV_AT_EPOCH": 258, "BSTAR": 0.0010059, "MEAN_MOTION_DOT": 0.00034324, "MEAN_MOTION_DDOT": 0}, "tle": {"line1": "1 67154U 25301X   25361.15921866  .00034324  00000+0  10059-2 0  9991", "line2": "2 67154  51.8659  55.6469 0008223 142.2810 217.8753 15.34855086  2580"}}, "geometry": {"type": "Point", "coordinates": [68.69517096043437, 17.125702365141855]}}, {"type": "Feature", "properties": {"norad_id": 67155, "name": "KUIPER-00250", "group": "last-30-days", "lat": 31.381121906910238, "lon": 83.27086268810149, "alt_km": 455.7721991197068, "timestamp": "2025-12-27T08:36:17.081934+00:00", "meta": {"OBJECT_NAME": "KUIPER-00250", "OBJECT_ID": "2025-301Y", "EPOCH": "2025-12-27T03:44:18.698208", "MEAN_MOTION": 15.35392911, "ECCENTRICITY": 0.0006214, "INCLINATION": 51.8718, "RA_OF_ASC_NODE": 55.6231, "ARG_OF_PERICENTER": 131.5399, "MEAN_ANOMALY": 228.6121, "EPHEMERIS_TYPE": 0, "CLASSIFICATION_TYPE": "U", "NORAD_CAT_ID": 67155, "ELEMENT_SET_NO": 999, "REV_AT_EPOCH": 261, "BSTAR": 0.00071188, "MEAN_MOTION_DOT": 0.0002456, "MEAN_MOTION_DDOT": 0}, "tle": {"line1": "1 67155U 25301Y   25361.15577197  .00024560  00000+0  71188-3 0  9998", "line2": "2 67155  51.8718  55.6231 0006214 131.5399 228.6121 15.35392911  2612"}}, "geometry": {"type": "Point", "coordinates": [83.27086268810149, 31.381121906910238]}}, {"type": "Feature", "properties": {"norad_id": 67156, "name": "KUIPER-00251", "group": "last-30-days", "lat": 13.762719503303018, "lon": 65.79019834223007, "alt_km": 463.45649534605127, "timestamp": "2025-12-27T08:36:17.081944+00:00", "meta": {"OBJECT_NAME": "KUIPER-00251", "OBJECT_ID": "2025-301Z", "EPOCH": "2025-12-27T03:50:24.653184", "MEAN_MOTION": 15.3482602, "ECCENTRICITY": 0.0008803, "INCLINATION": 51.8674, "RA_OF_ASC_NODE": 55.6533, "ARG_OF_PERICENTER": 139.8307, "MEAN_ANOMALY": 220.3331, "EPHEMERIS_TYPE": 0, "CLASSIFICATION_TYPE": "U", "NORAD_CAT_ID": 67156, "ELEMENT_SET_NO": 999, "REV_AT_EPOCH": 277, "BSTAR": 0.0010359, "MEAN_MOTION_DOT": 0.00035337, "MEAN_MOTION_DDOT": 0}, "tle": {"line1": "1 67156U 25301Z   25361.16000756  .00035337  00000+0  10359-2 0  9998", "line2": "2 67156  51.8674  55.6533 0008803 139.8307 220.3331 15.34826020  2776"}}, "geometry": {"type": "Point", "coordinates": [65.79019834223007, 13.762719503303018]}}, {"type": "Feature", "properties": {"norad_id": 67157, "name": "KUIPER-00252", "group": "last-30-days", "lat": 0.23820671306961422, "lon": 54.91755299743092, "alt_km": 469.4946959105091, "timestamp": "2025-12-27T08:36:17.081954+00:00", "meta": {"OBJECT_NAME": "KUIPER-00252", "OBJECT_ID": "2025-301AA", "EPOCH": "2025-12-27T03:54:49.699872", "MEAN_MOTION": 15.34318402, "ECCENTRICITY": 0.000979, "INCLINATION": 51.866, "RA_OF_ASC_NODE": 55.6717, "ARG_OF_PERICENTER": 150.6059, "MEAN_ANOMALY": 209.5479, "EPHEMERIS_TYPE": 0, "CLASSIFICATION_TYPE": "U", "NORAD_CAT_ID": 67157, "ELEMENT_SET_NO": 999, "REV_AT_EPOCH": 258, "BSTAR": 0.00076685, "MEAN_MOTION_DOT": 0.00025611, "MEAN_MOTION_DDOT": 0}, "tle": {"line1": "1 67157U 25301AA  25361.16307523  .00025611  00000+0  76685-3 0  9990", "line2": "2 67157  51.8660  55.6717 0009790 150.6059 209.5479 15.34318402  2588"}}, "geometry": {"type": "Point", "coordinates": [54.91755299743092, 0.23820671306961422]}}, {"type": "Feature", "properties": {"norad_id": 67158, "name": "KUIPER-00261", "group": "last-30-days", "lat": 35.45407114452349, "lon": 88.6446175583628, "alt_km": 454.21983462441676, "timestamp": "2025-12-27T08:36:17.081964+00:00", "meta": {"OBJECT_NAME": "KUIPER-00261", "OBJECT_ID": "2025-301AB", "EPOCH": "2025-12-27T03:42:45.242784", "MEAN_MOTION": 15.35482576, "ECCENTRICITY": 0.0005838, "INCLINATION": 51.8703, "RA_OF_ASC_NODE": 55.618, "ARG_OF_PERICENTER": 128.9185, "MEAN_ANOMALY": 231.2322, "EPHEMERIS_TYPE": 0, "CLASSIFICATION_TYPE": "U", "NORAD_CAT_ID": 67158, "ELEMENT_SET_NO": 999, "REV_AT_EPOCH": 258, "BSTAR": 0.0013844, "MEAN_MOTION_DOT": 0.00048413, "MEAN_MOTION_DDOT": 0}, "tle": {"line1": "1 67158U 25301AB  25361.15469031  .00048413  00000+0  13844-2 0  9995", "line2": "2 67158  51.8703  55.6180 0005838 128.9185 231.2322 15.35482576  2582"}}, "geometry": {"type": "Point", "coordinates": [88.6446175583628, 35.45407114452349]}}, {"type": "Feature", "properties": {"norad_id": 67159, "name": "KUIPER-00265", "group": "last-30-days", "lat": 51.71633292875518, "lon": 138.85187097374734, "alt_km": 448.1745075561457, "timestamp": "2025-12-27T08:36:17.081976+00:00", "meta": {"OBJECT_NAME": "KUIPER-00265", "OBJECT_ID": "2025-301AC", "EPOCH": "2025-12-27T03:32:49.832736", "MEAN_MOTION": 15.36459912, "ECCENTRICITY": 0.000193, "INCLINATION": 51.874, "RA_OF_ASC_NODE": 55.569, "ARG_OF_PERICENTER": 97.0714, "MEAN_ANOMALY": 263.0491, "EPHEMERIS_TYPE": 0, "CLASSIFICATION_TYPE": "U", "NORAD_CAT_ID": 67159, "ELEMENT_SET_NO": 999, "REV_AT_EPOCH": 261, "BSTAR": 0.00070821, "MEAN_MOTION_DOT": 0.00025282, "MEAN_MOTION_DDOT": 0}, "tle": {"line1": "1 67159U 25301AC  25361.14779899  .00025282  00000+0  70821-3 0  9999", "line2": "2 67159  51.8740  55.5690 0001930  97.0714 263.0491 15.36459912  2615"}}, "geometry": {"type": "Point", "coordinates": [138.85187097374734, 51.71633292875518]}}, {"type": "Feature", "properties": {"norad_id": 67160, "name": "GALILEO A", "group": "last-30-days", "lat": -20.395034993956006, "lon": 91.46444493262085, "alt_km": 22949.632519481416, "timestamp": "2025-12-27T08:36:17.081987+00:00", "meta": {"OBJECT_NAME": "GALILEO A", "OBJECT_ID": "2025-302A", "EPOCH": "2025-12-18T03:30:19.486368", "MEAN_MOTION": 1.72906186, "ECCENTRICITY": 0.00084238, "INCLINATION": 54.2406, "RA_OF_ASC_NODE": 107.2544, "ARG_OF_PERICENTER": 237.6458, "MEAN_ANOMALY": 122.2317, "EPHEMERIS_TYPE": 0, "CLASSIFICATION_TYPE": "U", "NORAD_CAT_ID": 67160, "ELEMENT_SET_NO": 999, "REV_AT_EPOCH": 2, "BSTAR": 0, "MEAN_MOTION_DOT": -7e-08, "MEAN_MOTION_DDOT": 0}, "tle": {"line1": "1 67160U 25302A   25352.14605887 -.00000007  00000+0  00000+0 0  9994", "line2": "2 67160  54.2406 107.2544 0008423 237.6458 122.2317  1.72906186    28"}}, "geometry": {"type": "Point", "coordinates": [91.46444493262085, -20.395034993956006]}}, {"type": "Feature", "properties": {"norad_id": 67161, "name": "GALILEO B", "group": "last-30-days", "lat": -18.544329785125417, "lon": 92.97552256805882, "alt_km": 22936.70529643534, "timestamp": "2025-12-27T08:36:17.082000+00:00", "meta": {"OBJECT_NAME": "GALILEO B", "OBJECT_ID": "2025-302B", "EPOCH": "2025-12-26T19:37:10.068960", "MEAN_MOTION": 1.72972318, "ECCENTRICITY": 0.00047769, "INCLINATION": 54.2304, "RA_OF_ASC_NODE": 106.9693, "ARG_OF_PERICENTER": 256.4913, "MEAN_ANOMALY": 103.4489, "EPHEMERIS_TYPE": 0, "CLASSIFICATION_TYPE": "U", "NORAD_CAT_ID": 67161, "ELEMENT_SET_NO": 999, "REV_AT_EPOCH": 18, "BSTAR": 0, "MEAN_MOTION_DOT": 1.6e-07, "MEAN_MOTION_DDOT": 0}, "tle": {"line1": "1 67161U 25302B   25360.81747765  .00000016  00000+0  00000+0 0  9999", "line2": "2 67161  54.2304 106.9693 0004776 256.4913 103.4489  1.72972318   187"}}, "geometry": {"type": "Point", "coordinates": [92.97552256805882, -18.544329785125417]}}, {"type": "Feature", "properties": {"norad_id": 67162, "name": "ARIANE 6 R/B", "group": "last-30-days", "lat": -14.101591078012145, "lon": 96.56934731420526, "alt_km": 22921.408034055232, "timestamp": "2025-12-27T08:36:17.082016+00:00", "meta": {"OBJECT_NAME": "ARIANE 6 R/B", "OBJECT_ID": "2025-302C", "EPOCH": "2025-12-19T07:12:31.071168", "MEAN_MOTION": 1.73130298, "ECCENTRICITY": 2.559e-05, "INCLINATION": 54.2437, "RA_OF_ASC_NODE": 107.222, "ARG_OF_PERICENTER": 160.7324, "MEAN_ANOMALY": 199.2296, "EPHEMERIS_TYPE": 0, "CLASSIFICATION_TYPE": "U", "NORAD_CAT_ID": 67162, "ELEMENT_SET_NO": 999, "REV_AT_EPOCH": 8, "BSTAR": 0, "MEAN_MOTION_DOT": -5e-08, "MEAN_MOTION_DDOT": 0}, "tle": {"line1": "1 67162U 25302C   25353.30035962 -.00000005  00000+0  00000+0 0  9994", "line2": "2 67162  54.2437 107.2220 0000255 160.7324 199.2296  1.73130298    88"}}, "geometry": {"type": "Point", "coordinates": [96.56934731420526, -14.101591078012145]}}]}